*******************************************************************************
 Revised: Sep 28, 2012             Phobos / (Mars)                          401

 SATELLITE PHYSICAL PROPERTIES:
  Radius (km)             = 13.1 x11.1 x9.3 Density (g cm^-3)   =  1.90 +- 0.08
  Mass (10^20 kg )        =  1.08 (10^-4)   Geometric Albedo    =  0.06 
                                 (+- 0.1)   V(1,0)              = +11.8

 SATELLITE ORBITAL DATA:
  Semi-major axis, a (km) = 9.3772(10^3)    Orbital period      = 0.319 d
  Eccentricity, e         = 0.0151          Rotational period   = Synchronous
  Inclination, i  (deg)   = 1.082
*******************************************************************************
 

 

*******************************************************************************
Ephemeris / WWW_USER Thu Dec 26 16:03:52 2019 Pasadena, USA      / Horizons    
*******************************************************************************
Target body name: Phobos (401)                    {source: mar097}
Center body name: Sun (10)                        {source: mar097}
Center-site name: BODY CENTER
*******************************************************************************
Start time      : A.D. 2019-Dec-26 00:00:00.0000 TDB
Stop  time      : A.D. 2020-Jan-25 00:00:00.0000 TDB
Step-size       : 1440 minutes
*******************************************************************************
Center geodetic : 0.00000000,0.00000000,0.0000000 {E-lon(deg),Lat(deg),Alt(km)}
Center cylindric: 0.00000000,0.00000000,0.0000000 {E-lon(deg),Dxy(km),Dz(km)}
Center radii    : 696000.0 x 696000.0 x 696000.0 k{Equator, meridian, pole}    
Keplerian GM    : 1.3271244004194000E+11 km^3/s^2
Output units    : KM-S, deg                                                    
Output type     : GEOMETRIC osculating elements
Output format   : 10
Reference frame : ICRF/J2000.0                                                 
Coordinate systm: Ecliptic and Mean Equinox of Reference Epoch                 
*******************************************************************************
            JDTDB,            Calendar Date (TDB),                     EC,                     QR,                     IN,                     OM,                      W,                     Tp,                      N,                     MA,                     TA,                      A,                     AD,                     PR,
**************************************************************************************************************************************************************************************************************************************************************************************************************************************************
$$SOE
2458864.500000000, A.D. 2020-Jan-16 00:00:00.0000,  7.040529927172813E-02,  2.043277837023394E+08,  2.701385600718108E-01,  1.333636019590822E+02,  2.647031884110760E+02,  2.755474526562775E+07,  6.405127392941249E-06,  1.835083462936095E+02,  1.830546260784255E+02,  2.198030857343131E+08,  2.352783877662868E+08,  5.620497109811382E+07,
2458865.500000000, A.D. 2020-Jan-17 00:00:00.0000,  6.547105435637418E-02,  2.347095879909270E+08,  1.527926927936672E+00,  5.120501153573544E+01,  1.834521925368119E+02,  2.180114283576221E+06,  5.244104522143557E-06,  3.485672528267082E+02,  3.469511667568466E+02,  2.511528284758248E+08,  2.675960689607227E+08,  6.864851729782990E+07,
2458866.500000000, A.D. 2020-Jan-18 00:00:00.0000,  1.548093981360297E-01,  2.308440397417219E+08,  3.064927110107872E+00,  4.656755846430498E+01,  2.049620835315233E+02,  4.656607557066323E+06,  4.624155602735404E-06,  3.384671220752518E+02,  3.305678992531970E+02,  2.731266050907595E+08,  3.154091704397970E+08,  7.785205147228245E+07,
2458867.500000000, A.D. 2020-Jan-19 00:00:00.0000,  1.718357544442275E-01,  2.186000897251231E+08,  3.841881786835469E+00,  4.590901282640310E+01,  2.345769319330475E+02,  8.700760524170149E+06,  4.867182834995765E-06,  3.176518077253503E+02,  3.021035809216709E+02,  2.639574104994388E+08,  3.093147312737545E+08,  7.396475789065221E+07,
2458868.500000000, A.D. 2020-Jan-20 00:00:00.0000,  1.752340786225297E-01,  1.918871055532468E+08,  3.341982005864833E+00,  4.661596892498677E+01,  2.791584332760954E+02,  1.404692842312868E+07,  5.881740009850334E-06,  2.773796190781802E+02,  2.573094148721205E+02,  2.326564429732614E+08,  2.734257803932760E+08,  6.120637760205257E+07,
2458869.500000000, A.D. 2020-Jan-21 00:00:00.0000,  2.123585689357634E-01,  1.620531381675103E+08,  1.628842037702203E+00,  5.026934711622389E+01,  3.128882654885670E+02,  1.720812687724070E+07,  7.072697928551102E-06,  2.382921166810952E+02,  2.204216477166301E+02,  2.057448120124270E+08,  2.494364858573437E+08,  5.089995411040393E+07,
2458870.500000000, A.D. 2020-Jan-22 00:00:00.0000,  2.085690599233870E-01,  1.559858389665157E+08,  2.024968118162189E-01,  1.646544091808770E+02,  2.185963203507806E+02,  1.978585917165745E+07,  7.543453656370088E-06,  2.107462882871370E+02,  2.008233059000747E+02,  1.970934304784897E+08,  2.382010219904638E+08,  4.772349859881450E+07,
2458871.500000000, A.D. 2020-Jan-23 00:00:00.0000,  1.227000971627249E-01,  1.831418480663643E+08,  3.724088548265427E-01,  1.992486979191804E+02,  1.965924689069459E+02,  2.441101391070627E+07,  6.920208553464318E-06,  1.910706927363940E+02,  1.887261335615430E+02,  2.087562616547265E+08,  2.343706752430887E+08,  5.202155357294554E+07,
2458872.500000000, A.D. 2020-Jan-24 00:00:00.0000,  1.279629921157965E-02,  2.336242637491158E+08,  9.082196273631730E-01,  5.418064341082924E+01,  1.916742291619707E+02,  3.536870237071175E+06,  5.733392751237169E-06,  3.397217338207096E+02,  3.392057977033650E+02,  2.366525404661005E+08,  2.396808171830851E+08,  6.279004694424921E+07,
2458873.500000000, A.D. 2020-Jan-25 00:00:00.0000,  1.291669540534585E-01,  2.318312645708639E+08,  2.546373730382567E+00,  4.843823075131992E+01,  1.983165799164501E+02,  3.391346294643203E+06,  4.805325321768027E-06,  3.437034777754669E+02,  3.388012479213779E+02,  2.662178079368563E+08,  3.006043513028486E+08,  7.491688405969253E+07,
